[{"OBJECT_NAME":"STARLINK-36958","OBJECT_ID":"2026-049X","EPOCH":"2026-03-26T20:00:03.000384","MEAN_MOTION":15.80832034,"ECCENTRICITY":0.0001368,"INCLINATION":97.2836,"RA_OF_ASC_NODE":105.9399,"ARG_OF_PERICENTER":106.6805,"MEAN_ANOMALY":55.9853,"EPHEMERIS_TYPE":0,"CLASSIFICATION_TYPE":"U","NORAD_CAT_ID":68163,"ELEMENT_SET_NO":999,"REV_AT_EPOCH":337,"BSTAR":-0.00033262,"MEAN_MOTION_DOT":-0.00063441,"MEAN_MOTION_DDOT":0},{"OBJECT_NAME":"STARLINK-37002","OBJECT_ID":"2026-049Y","EPOCH":"2026-03-26T20:00:03.000384","MEAN_MOTION":15.80846605,"ECCENTRICITY":0.0001414,"INCLINATION":97.2842,"RA_OF_ASC_NODE":105.9388,"ARG_OF_PERICENTER":76.1575,"MEAN_ANOMALY":82.2067,"EPHEMERIS_TYPE":0,"CLASSIFICATION_TYPE":"U","NORAD_CAT_ID":68164,"ELEMENT_SET_NO":999,"REV_AT_EPOCH":337,"BSTAR":-0.00023952,"MEAN_MOTION_DOT":-0.00045845,"MEAN_MOTION_DDOT":0},{"OBJECT_NAME":"STARLINK-36971","OBJECT_ID":"2026-049Z","EPOCH":"2026-03-26T20:00:03.000384","MEAN_MOTION":15.80819006,"ECCENTRICITY":0.0001186,"INCLINATION":97.2837,"RA_OF_ASC_NODE":105.9418,"ARG_OF_PERICENTER":106.8653,"MEAN_ANOMALY":60.0739,"EPHEMERIS_TYPE":0,"CLASSIFICATION_TYPE":"U","NORAD_CAT_ID":68165,"ELEMENT_SET_NO":999,"REV_AT_EPOCH":337,"BSTAR":-0.00018852,"MEAN_MOTION_DOT":-0.00036108,"MEAN_MOTION_DDOT":0},{"OBJECT_NAME":"STARLINK-36273","OBJECT_ID":"2026-049AA","EPOCH":"2026-03-26T20:00:03.000384","MEAN_MOTION":15.77861138,"ECCENTRICITY":0.0001798,"INCLINATION":97.2825,"RA_OF_ASC_NODE":105.944,"ARG_OF_PERICENTER":83.4965,"MEAN_ANOMALY":88.2413,"EPHEMERIS_TYPE":0,"CLASSIFICATION_TYPE":"U","NORAD_CAT_ID":68166,"ELEMENT_SET_NO":999,"REV_AT_EPOCH":338,"BSTAR":-0.013117,"MEAN_MOTION_DOT":-0.01916975,"MEAN_MOTION_DDOT":0},{"OBJECT_NAME":"STARLINK-36969","OBJECT_ID":"2026-050A","EPOCH":"2026-03-26T18:11:47.425920","MEAN_MOTION":15.80958849,"ECCENTRICITY":0.0001103,"INCLINATION":53.1593,"RA_OF_ASC_NODE":196.3005,"ARG_OF_PERICENTER":112.9867,"MEAN_ANOMALY":247.1272,"EPHEMERIS_TYPE":0,"CLASSIFICATION_TYPE":"U","NORAD_CAT_ID":68167,"ELEMENT_SET_NO":999,"REV_AT_EPOCH":317,"BSTAR":0.0011215,"MEAN_MOTION_DOT":0.00227471,"MEAN_MOTION_DDOT":0},{"OBJECT_NAME":"STARLINK-36984","OBJECT_ID":"2026-050B","EPOCH":"2026-03-26T18:10:42.269088","MEAN_MOTION":15.80951452,"ECCENTRICITY":3.49e-5,"INCLINATION":53.1595,"RA_OF_ASC_NODE":196.2957,"ARG_OF_PERICENTER":150.6597,"MEAN_ANOMALY":209.4445,"EPHEMERIS_TYPE":0,"CLASSIFICATION_TYPE":"U","NORAD_CAT_ID":68168,"ELEMENT_SET_NO":999,"REV_AT_EPOCH":317,"BSTAR":0.0011061,"MEAN_MOTION_DOT":0.00224195,"MEAN_MOTION_DDOT":0},{"OBJECT_NAME":"STARLINK-37077","OBJECT_ID":"2026-050C","EPOCH":"2026-03-26T18:09:37.794816","MEAN_MOTION":15.80965787,"ECCENTRICITY":9.88e-5,"INCLINATION":53.1596,"RA_OF_ASC_NODE":196.2907,"ARG_OF_PERICENTER":84.163,"MEAN_ANOMALY":275.9505,"EPHEMERIS_TYPE":0,"CLASSIFICATION_TYPE":"U","NORAD_CAT_ID":68169,"ELEMENT_SET_NO":999,"REV_AT_EPOCH":317,"BSTAR":0.0010996,"MEAN_MOTION_DOT":0.00222975,"MEAN_MOTION_DDOT":0},{"OBJECT_NAME":"STARLINK-37003","OBJECT_ID":"2026-050D","EPOCH":"2026-03-26T18:08:32.839296","MEAN_MOTION":15.81001705,"ECCENTRICITY":8.9e-5,"INCLINATION":53.1594,"RA_OF_ASC_NODE":196.2853,"ARG_OF_PERICENTER":79.1502,"MEAN_ANOMALY":280.9621,"EPHEMERIS_TYPE":0,"CLASSIFICATION_TYPE":"U","NORAD_CAT_ID":68170,"ELEMENT_SET_NO":999,"REV_AT_EPOCH":317,"BSTAR":0.0016004,"MEAN_MOTION_DOT":0.0032948,"MEAN_MOTION_DDOT":0},{"OBJECT_NAME":"STARLINK-37034","OBJECT_ID":"2026-050E","EPOCH":"2026-03-26T18:07:27.958080","MEAN_MOTION":15.80961897,"ECCENTRICITY":6.83e-5,"INCLINATION":53.1596,"RA_OF_ASC_NODE":196.2801,"ARG_OF_PERICENTER":39.3338,"MEAN_ANOMALY":320.7735,"EPHEMERIS_TYPE":0,"CLASSIFICATION_TYPE":"U","NORAD_CAT_ID":68171,"ELEMENT_SET_NO":999,"REV_AT_EPOCH":317,"BSTAR":0.001095,"MEAN_MOTION_DOT":0.00221965,"MEAN_MOTION_DDOT":0},{"OBJECT_NAME":"STARLINK-37031","OBJECT_ID":"2026-050F","EPOCH":"2026-03-26T18:06:23.292864","MEAN_MOTION":15.80944521,"ECCENTRICITY":6.84e-5,"INCLINATION":53.1595,"RA_OF_ASC_NODE":196.2748,"ARG_OF_PERICENTER":98.0859,"MEAN_ANOMALY":262.0241,"EPHEMERIS_TYPE":0,"CLASSIFICATION_TYPE":"U","NORAD_CAT_ID":68172,"ELEMENT_SET_NO":999,"REV_AT_EPOCH":317,"BSTAR":0.00091114,"MEAN_MOTION_DOT":0.00183609,"MEAN_MOTION_DDOT":0},{"OBJECT_NAME":"STARLINK-37076","OBJECT_ID":"2026-050G","EPOCH":"2026-03-26T18:05:18.676032","MEAN_MOTION":15.80949626,"ECCENTRICITY":0.0001387,"INCLINATION":53.1596,"RA_OF_ASC_NODE":196.2704,"ARG_OF_PERICENTER":92.9614,"MEAN_ANOMALY":267.1567,"EPHEMERIS_TYPE":0,"CLASSIFICATION_TYPE":"U","NORAD_CAT_ID":68173,"ELEMENT_SET_NO":999,"REV_AT_EPOCH":317,"BSTAR":0.001025,"MEAN_MOTION_DOT":0.00207253,"MEAN_MOTION_DDOT":0},{"OBJECT_NAME":"STARLINK-37078","OBJECT_ID":"2026-050H","EPOCH":"2026-03-26T19:35:15.024768","MEAN_MOTION":15.81072028,"ECCENTRICITY":8.4e-5,"INCLINATION":53.1593,"RA_OF_ASC_NODE":195.9482,"ARG_OF_PERICENTER":71.0035,"MEAN_ANOMALY":289.1079,"EPHEMERIS_TYPE":0,"CLASSIFICATION_TYPE":"U","NORAD_CAT_ID":68174,"ELEMENT_SET_NO":999,"REV_AT_EPOCH":318,"BSTAR":0.001988,"MEAN_MOTION_DOT":0.00414927,"MEAN_MOTION_DDOT":0},{"OBJECT_NAME":"STARLINK-36886","OBJECT_ID":"2026-050J","EPOCH":"2026-03-26T18:03:08.911008","MEAN_MOTION":15.80949914,"ECCENTRICITY":9.77e-5,"INCLINATION":53.1593,"RA_OF_ASC_NODE":196.2598,"ARG_OF_PERICENTER":105.5576,"MEAN_ANOMALY":254.5554,"EPHEMERIS_TYPE":0,"CLASSIFICATION_TYPE":"U","NORAD_CAT_ID":68175,"ELEMENT_SET_NO":999,"REV_AT_EPOCH":317,"BSTAR":0.0010615,"MEAN_MOTION_DOT":0.0021486,"MEAN_MOTION_DDOT":0},{"OBJECT_NAME":"STARLINK-36905","OBJECT_ID":"2026-050K","EPOCH":"2026-03-26T19:33:05.625216","MEAN_MOTION":15.81023302,"ECCENTRICITY":7.62e-5,"INCLINATION":53.1589,"RA_OF_ASC_NODE":195.937,"ARG_OF_PERICENTER":146.6139,"MEAN_ANOMALY":213.4932,"EPHEMERIS_TYPE":0,"CLASSIFICATION_TYPE":"U","NORAD_CAT_ID":68176,"ELEMENT_SET_NO":999,"REV_AT_EPOCH":318,"BSTAR":0.0015232,"MEAN_MOTION_DOT":0.00313274,"MEAN_MOTION_DDOT":0},{"OBJECT_NAME":"STARLINK-36668","OBJECT_ID":"2026-050L","EPOCH":"2026-03-26T19:31:59.109312","MEAN_MOTION":15.81141565,"ECCENTRICITY":8.46e-5,"INCLINATION":53.1592,"RA_OF_ASC_NODE":195.9322,"ARG_OF_PERICENTER":112.617,"MEAN_ANOMALY":247.4942,"EPHEMERIS_TYPE":0,"CLASSIFICATION_TYPE":"U","NORAD_CAT_ID":68177,"ELEMENT_SET_NO":999,"REV_AT_EPOCH":318,"BSTAR":0.0021631,"MEAN_MOTION_DOT":0.00455121,"MEAN_MOTION_DDOT":0},{"OBJECT_NAME":"STARLINK-36677","OBJECT_ID":"2026-050M","EPOCH":"2026-03-26T19:30:56.052000","MEAN_MOTION":15.81013723,"ECCENTRICITY":5.75e-5,"INCLINATION":53.159,"RA_OF_ASC_NODE":195.9272,"ARG_OF_PERICENTER":179.1743,"MEAN_ANOMALY":180.9281,"EPHEMERIS_TYPE":0,"CLASSIFICATION_TYPE":"U","NORAD_CAT_ID":68178,"ELEMENT_SET_NO":999,"REV_AT_EPOCH":318,"BSTAR":0.0017062,"MEAN_MOTION_DOT":0.0035245,"MEAN_MOTION_DDOT":0},{"OBJECT_NAME":"STARLINK-37052","OBJECT_ID":"2026-050N","EPOCH":"2026-03-26T19:29:51.317664","MEAN_MOTION":15.81025001,"ECCENTRICITY":7.37e-5,"INCLINATION":53.1593,"RA_OF_ASC_NODE":195.9233,"ARG_OF_PERICENTER":114.9615,"MEAN_ANOMALY":245.1485,"EPHEMERIS_TYPE":0,"CLASSIFICATION_TYPE":"U","NORAD_CAT_ID":68179,"ELEMENT_SET_NO":999,"REV_AT_EPOCH":318,"BSTAR":0.0015968,"MEAN_MOTION_DOT":0.00329064,"MEAN_MOTION_DDOT":0}]
