STARLINK-36958          
1 68163U 26049X   26085.83336806 -.00063441  00000+0 -33262-3 0  9991
2 68163  97.2836 105.9399 0001368 106.6805  55.9853 15.80832034  3373
STARLINK-37002          
1 68164U 26049Y   26085.83336806 -.00045845  00000+0 -23952-3 0  9995
2 68164  97.2842 105.9388 0001414  76.1575  82.2067 15.80846605  3375
STARLINK-36971          
1 68165U 26049Z   26085.83336806 -.00036108  00000+0 -18852-3 0  9991
2 68165  97.2837 105.9418 0001186 106.8653  60.0739 15.80819006  3373
STARLINK-36273          
1 68166U 26049AA  26085.83336806 -.01916975  00000+0 -13117-1 0  9999
2 68166  97.2825 105.9440 0001798  83.4965  88.2413 15.77861138  3382
STARLINK-36969          
1 68167U 26050A   26085.75818780  .00227471  00000+0  11215-2 0  9990
2 68167  53.1593 196.3005 0001103 112.9867 247.1272 15.80958849  3172
STARLINK-36984          
1 68168U 26050B   26085.75743367  .00224195  00000+0  11061-2 0  9998
2 68168  53.1595 196.2957 0000349 150.6597 209.4445 15.80951452  3176
STARLINK-37077          
1 68169U 26050C   26085.75668744  .00222975  00000+0  10996-2 0  9994
2 68169  53.1596 196.2907 0000988  84.1630 275.9505 15.80965787  3172
STARLINK-37003          
1 68170U 26050D   26085.75593564  .00329480  00000+0  16004-2 0  9998
2 68170  53.1594 196.2853 0000890  79.1502 280.9621 15.81001705  3173
STARLINK-37034          
1 68171U 26050E   26085.75518470  .00221965  00000+0  10950-2 0  9995
2 68171  53.1596 196.2801 0000683  39.3338 320.7735 15.80961897  3179
STARLINK-37031          
1 68172U 26050F   26085.75443626  .00183609  00000+0  91114-3 0  9990
2 68172  53.1595 196.2748 0000684  98.0859 262.0241 15.80944521  3175
STARLINK-37076          
1 68173U 26050G   26085.75368838  .00207253  00000+0  10250-2 0  9995
2 68173  53.1596 196.2704 0001387  92.9614 267.1567 15.80949626  3170
STARLINK-37078          
1 68174U 26050H   26085.81614612  .00414927  00000+0  19880-2 0  9993
2 68174  53.1593 195.9482 0000840  71.0035 289.1079 15.81072028  3182
STARLINK-36886          
1 68175U 26050J   26085.75218647  .00214860  00000+0  10615-2 0  9996
2 68175  53.1593 196.2598 0000977 105.5576 254.5554 15.80949914  3178
STARLINK-36905          
1 68176U 26050K   26085.81464844  .00313274  00000+0  15232-2 0  9995
2 68176  53.1589 195.9370 0000762 146.6139 213.4932 15.81023302  3181
STARLINK-36668          
1 68177U 26050L   26085.81387858  .00455121  00000+0  21631-2 0  9993
2 68177  53.1592 195.9322 0000846 112.6170 247.4942 15.81141565  3184
STARLINK-36677          
1 68178U 26050M   26085.81314875  .00352450  00000+0  17062-2 0  9997
2 68178  53.1590 195.9272 0000575 179.1743 180.9281 15.81013723  3181
STARLINK-37052          
1 68179U 26050N   26085.81239951  .00329064  00000+0  15968-2 0  9997
2 68179  53.1593 195.9233 0000737 114.9615 245.1485 15.81025001  3189
